[Satellite]
VERSION=1.1
NAME=COSMOS 2456 (730)
NICKNAME=COSMOS 2456 (730)
TLE1=1 36111U 09070A   18020.54495479  .00000072  00000-0  00000-0 0  9995
TLE2=2 36111  64.1838 176.1474 0003201 348.7860 108.1308  2.13102846 63058
